start=new Date('2021-10-27T00:00:00.000Z').valueOf();
sats=[{"PERIAPSIS":"545.978","EPHEMERIS_TYPE":"0","GP_ID":"188199003","NORAD_CAT_ID":"47863","ARG_OF_PERICENTER":"74.2162","OBJECT_ID":"2021-021D","LAUNCH_DATE":"2021-03-14","RCS_SIZE":"LARGE","TIME_SYSTEM":"UTC","REF_FRAME":"TEME","PERIOD":"95.592","MEAN_MOTION_DOT":"0.00000434","MEAN_MOTION":"15.06398436","COUNTRY_CODE":"US","DECAY_DATE":null,"OBJECT_TYPE":"PAYLOAD","CENTER_NAME":"EARTH","TLE_LINE1":"1 47863U 21021D   21299.29541628  .00000434  00000-0  48053-4 0  9999","BSTAR":"0.00004805300000","SEMIMAJOR_AXIS":"6925.353","FILE":"3184921","REV_AT_EPOCH":"3573","MEAN_MOTION_DDOT":"0.0000000000000","INCLINATION":"53.0554","APOAPSIS":"548.459","ELEMENT_SET_NO":"999","TLE_LINE2":"2 47863  53.0554 233.6183 0001791  74.2162 285.9024 15.06398436 35731","OBJECT_NAME":"STARLINK-2293","SITE":"AFETR","MEAN_ELEMENT_THEORY":"SGP4","EPOCH":"2021-10-26T07:05:23.966592","CLASSIFICATION_TYPE":"U","ECCENTRICITY":"0.00017910","MEAN_ANOMALY":"285.9024","RA_OF_ASC_NODE":"233.6183"},{"MEAN_ANOMALY":"288.4158","RA_OF_ASC_NODE":"224.0320","OBJECT_NAME":"STARLINK-2304","SITE":"AFETR","MEAN_ELEMENT_THEORY":"SGP4","ECCENTRICITY":"0.00016790","CLASSIFICATION_TYPE":"U","EPOCH":"2021-10-26T04:52:40.567584","TLE_LINE2":"2 47864  53.0561 224.0320 0001679  71.7013 288.4158 15.06404640 35831","APOAPSIS":"548.362","ELEMENT_SET_NO":"999","FILE":"3184921","MEAN_MOTION_DDOT":"0.0000000000000","INCLINATION":"53.0561","REV_AT_EPOCH":"3583","TLE_LINE1":"1 47864U 21021E   21299.20324731  .00000481  00000-0  51167-4 0  9997","BSTAR":"0.00005116700000","SEMIMAJOR_AXIS":"6925.334","DECAY_DATE":null,"COUNTRY_CODE":"US","OBJECT_TYPE":"PAYLOAD","CENTER_NAME":"EARTH","MEAN_MOTION_DOT":"0.00000481","MEAN_MOTION":"15.06404640","REF_FRAME":"TEME","PERIOD":"95.592","LAUNCH_DATE":"2021-03-14","TIME_SYSTEM":"UTC","RCS_SIZE":"LARGE","NORAD_CAT_ID":"47864","OBJECT_ID":"2021-021E","ARG_OF_PERICENTER":"71.7013","GP_ID":"188200254","PERIAPSIS":"546.037","EPHEMERIS_TYPE":"0"},{"RA_OF_ASC_NODE":"233.4231","MEAN_ANOMALY":"277.7268","MEAN_ELEMENT_THEORY":"SGP4","SITE":"AFETR","CLASSIFICATION_TYPE":"U","EPOCH":"2021-10-26T08:03:46.633824","ECCENTRICITY":"0.00016160","OBJECT_NAME":"STARLINK-2310","TLE_LINE2":"2 47865  53.0541 233.4231 0001616  82.3904 277.7268 15.06417159 35846","APOAPSIS":"548.280","ELEMENT_SET_NO":"999","MEAN_MOTION_DDOT":"0.0000000000000","FILE":"3184921","REV_AT_EPOCH":"3584","INCLINATION":"53.0541","BSTAR":"-0.00021036000000","SEMIMAJOR_AXIS":"6925.296","TLE_LINE1":"1 47865U 21021F   21299.33595641 -.00003415  00000-0 -21036-3 0  9995","OBJECT_TYPE":"PAYLOAD","CENTER_NAME":"EARTH","DECAY_DATE":null,"COUNTRY_CODE":"US","MEAN_MOTION":"15.06417159","MEAN_MOTION_DOT":"-0.00003415","PERIOD":"95.591","REF_FRAME":"TEME","LAUNCH_DATE":"2021-03-14","TIME_SYSTEM":"UTC","RCS_SIZE":"LARGE","OBJECT_ID":"2021-021F","NORAD_CAT_ID":"47865","ARG_OF_PERICENTER":"82.3904","GP_ID":"188200001","PERIAPSIS":"546.042","EPHEMERIS_TYPE":"0"},{"LAUNCH_DATE":"2021-03-14","RCS_SIZE":"LARGE","TIME_SYSTEM":"UTC","MEAN_MOTION":"15.06407813","MEAN_MOTION_DOT":"0.00000547","REF_FRAME":"TEME","PERIOD":"95.592","PERIAPSIS":"546.108","EPHEMERIS_TYPE":"0","NORAD_CAT_ID":"47866","OBJECT_ID":"2021-021G","ARG_OF_PERICENTER":"63.6759","GP_ID":"188198753","SITE":"AFETR","MEAN_ELEMENT_THEORY":"SGP4","EPOCH":"2021-10-26T04:58:01.013952","CLASSIFICATION_TYPE":"U","ECCENTRICITY":"0.00015620","OBJECT_NAME":"STARLINK-2320","TLE_LINE2":"2 47866  53.0557 234.0096 0001562  63.6759 296.4390 15.06407813 35873","RA_OF_ASC_NODE":"234.0096","MEAN_ANOMALY":"296.4390","SEMIMAJOR_AXIS":"6925.325","BSTAR":"0.00005559900000","TLE_LINE1":"1 47866U 21021G   21299.20695618  .00000547  00000-0  55599-4 0  9990","OBJECT_TYPE":"PAYLOAD","CENTER_NAME":"EARTH","COUNTRY_CODE":"US","DECAY_DATE":null,"APOAPSIS":"548.271","ELEMENT_SET_NO":"999","FILE":"3184921","REV_AT_EPOCH":"3587","MEAN_MOTION_DDOT":"0.0000000000000","INCLINATION":"53.0557"},{"RCS_SIZE":"LARGE","TIME_SYSTEM":"UTC","LAUNCH_DATE":"2021-03-14","MEAN_MOTION":"15.06399991","MEAN_MOTION_DOT":"0.00000435","REF_FRAME":"TEME","PERIOD":"95.592","EPHEMERIS_TYPE":"0","PERIAPSIS":"546.065","NORAD_CAT_ID":"47867","OBJECT_ID":"2021-021H","ARG_OF_PERICENTER":"70.2214","GP_ID":"188199503","ECCENTRICITY":"0.00016590","CLASSIFICATION_TYPE":"U","EPOCH":"2021-10-26T03:13:11.331552","MEAN_ELEMENT_THEORY":"SGP4","SITE":"AFETR","OBJECT_NAME":"STARLINK-2321","TLE_LINE2":"2 47867  53.0550 224.3324 0001659  70.2214 289.8954 15.06399991 35802","RA_OF_ASC_NODE":"224.3324","MEAN_ANOMALY":"289.8954","BSTAR":"0.00004809000000","SEMIMAJOR_AXIS":"6925.349","TLE_LINE1":"1 47867U 21021H   21299.13415893  .00000435  00000-0  48090-4 0  9992","CENTER_NAME":"EARTH","OBJECT_TYPE":"PAYLOAD","DECAY_DATE":null,"COUNTRY_CODE":"US","ELEMENT_SET_NO":"999","APOAPSIS":"548.363","FILE":"3184921","MEAN_MOTION_DDOT":"0.0000000000000","INCLINATION":"53.0550","REV_AT_EPOCH":"3580"},{"MEAN_MOTION_DDOT":"0.0000000000000","FILE":"3185105","REV_AT_EPOCH":"3604","INCLINATION":"53.0440","ELEMENT_SET_NO":"999","APOAPSIS":"417.016","DECAY_DATE":null,"COUNTRY_CODE":"US","CENTER_NAME":"EARTH","OBJECT_TYPE":"PAYLOAD","TLE_LINE1":"1 47868U 21021J   21299.30419278 -.00444535  00000-0 -81690-2 0  9999","BSTAR":"-0.00816900000000","SEMIMAJOR_AXIS":"6794.131","MEAN_ANOMALY":"135.1674","RA_OF_ASC_NODE":"176.7433","TLE_LINE2":"2 47868  53.0440 176.7433 0001501 224.9212 135.1674 15.50250586 36048","OBJECT_NAME":"STARLINK-2323","CLASSIFICATION_TYPE":"U","EPOCH":"2021-10-26T07:18:02.256192","ECCENTRICITY":"0.00015010","SITE":"AFETR","MEAN_ELEMENT_THEORY":"SGP4","GP_ID":"188204784","ARG_OF_PERICENTER":"224.9212","OBJECT_ID":"2021-021J","NORAD_CAT_ID":"47868","EPHEMERIS_TYPE":"0","PERIAPSIS":"414.976","REF_FRAME":"TEME","PERIOD":"92.888","MEAN_MOTION_DOT":"-0.00444535","MEAN_MOTION":"15.50250586","TIME_SYSTEM":"UTC","RCS_SIZE":"LARGE","LAUNCH_DATE":"2021-03-14"},{"COUNTRY_CODE":"US","DECAY_DATE":null,"OBJECT_TYPE":"PAYLOAD","CENTER_NAME":"EARTH","TLE_LINE1":"1 47869U 21021K   21299.26316924  .00000478  00000-0  50999-4 0  9991","BSTAR":"0.00005099900000","SEMIMAJOR_AXIS":"6925.342","FILE":"3184921","MEAN_MOTION_DDOT":"0.0000000000000","REV_AT_EPOCH":"3597","INCLINATION":"53.0562","APOAPSIS":"548.400","ELEMENT_SET_NO":"999","TLE_LINE2":"2 47869  53.0562 223.7635 0001724  70.7224 289.3952 15.06402297 35979","OBJECT_NAME":"STARLINK-2324","SITE":"AFETR","MEAN_ELEMENT_THEORY":"SGP4","CLASSIFICATION_TYPE":"U","EPOCH":"2021-10-26T06:18:57.822336","ECCENTRICITY":"0.00017240","MEAN_ANOMALY":"289.3952","RA_OF_ASC_NODE":"223.7635","PERIAPSIS":"546.013","EPHEMERIS_TYPE":"0","GP_ID":"188200501","ARG_OF_PERICENTER":"70.7224","OBJECT_ID":"2021-021K","NORAD_CAT_ID":"47869","LAUNCH_DATE":"2021-03-14","RCS_SIZE":"LARGE","TIME_SYSTEM":"UTC","REF_FRAME":"TEME","PERIOD":"95.592","MEAN_MOTION_DOT":"0.00000478","MEAN_MOTION":"15.06402297"},{"NORAD_CAT_ID":"47870","OBJECT_ID":"2021-021L","ARG_OF_PERICENTER":"70.0560","GP_ID":"188202438","PERIAPSIS":"548.567","EPHEMERIS_TYPE":"0","MEAN_MOTION_DOT":"0.00000355","MEAN_MOTION":"15.05580788","REF_FRAME":"TEME","PERIOD":"95.644","LAUNCH_DATE":"2021-03-14","RCS_SIZE":"MEDIUM","TIME_SYSTEM":"UTC","APOAPSIS":"550.884","ELEMENT_SET_NO":"999","MEAN_MOTION_DDOT":"0.0000000000000","FILE":"3185025","REV_AT_EPOCH":"3504","INCLINATION":"53.0565","TLE_LINE1":"1 47870U 21021L   21299.34471966  .00000355  00000-0  43529-4 0  9995","SEMIMAJOR_AXIS":"6927.860","BSTAR":"0.00004352900000","DECAY_DATE":null,"COUNTRY_CODE":"US","OBJECT_TYPE":"PAYLOAD","CENTER_NAME":"EARTH","MEAN_ANOMALY":"290.0608","RA_OF_ASC_NODE":"248.4574","OBJECT_NAME":"STARLINK-2326","MEAN_ELEMENT_THEORY":"SGP4","SITE":"AFETR","CLASSIFICATION_TYPE":"U","EPOCH":"2021-10-26T08:16:23.778624","ECCENTRICITY":"0.00016720","TLE_LINE2":"2 47870  53.0565 248.4574 0001672  70.0560 290.0608 15.05580788 35044"},{"EPHEMERIS_TYPE":"0","PERIAPSIS":"545.963","OBJECT_ID":"2021-021M","NORAD_CAT_ID":"47871","ARG_OF_PERICENTER":"80.3237","GP_ID":"188199004","TIME_SYSTEM":"UTC","RCS_SIZE":"LARGE","LAUNCH_DATE":"2021-03-14","MEAN_MOTION_DOT":"-0.00000487","MEAN_MOTION":"15.06404626","PERIOD":"95.592","REF_FRAME":"TEME","TLE_LINE1":"1 47871U 21021M   21299.25947786 -.00000487  00000-0 -13784-4 0  9992","BSTAR":"-0.00001378400000","SEMIMAJOR_AXIS":"6925.334","COUNTRY_CODE":"US","DECAY_DATE":null,"CENTER_NAME":"EARTH","OBJECT_TYPE":"PAYLOAD","ELEMENT_SET_NO":"999","APOAPSIS":"548.436","REV_AT_EPOCH":"3586","FILE":"3184921","MEAN_MOTION_DDOT":"0.0000000000000","INCLINATION":"53.0561","OBJECT_NAME":"STARLINK-2327","ECCENTRICITY":"0.00017860","CLASSIFICATION_TYPE":"U","EPOCH":"2021-10-26T06:13:38.887104","SITE":"AFETR","MEAN_ELEMENT_THEORY":"SGP4","TLE_LINE2":"2 47871  53.0561 223.7799 0001786  80.3237 279.7953 15.06404626 35861","MEAN_ANOMALY":"279.7953","RA_OF_ASC_NODE":"223.7799"},{"INCLINATION":"53.0530","FILE":"3185105","MEAN_MOTION_DDOT":"0.0000000000000","REV_AT_EPOCH":"3597","APOAPSIS":"536.486","ELEMENT_SET_NO":"999","COUNTRY_CODE":"US","DECAY_DATE":null,"OBJECT_TYPE":"PAYLOAD","CENTER_NAME":"EARTH","TLE_LINE1":"1 47872U 21021N   21299.38453355 -.00250110  00000-0 -15503-1 0  9999","SEMIMAJOR_AXIS":"6912.669","BSTAR":"-0.01550300000000","MEAN_ANOMALY":"196.5705","RA_OF_ASC_NODE":"183.0526","TLE_LINE2":"2 47872  53.0530 183.0526 0002825 163.5377 196.5705 15.10546690 35974","OBJECT_NAME":"STARLINK-2328","SITE":"AFETR","MEAN_ELEMENT_THEORY":"SGP4","CLASSIFICATION_TYPE":"U","ECCENTRICITY":"0.00028250","EPOCH":"2021-10-26T09:13:43.698720","GP_ID":"188204296","ARG_OF_PERICENTER":"163.5377","OBJECT_ID":"2021-021N","NORAD_CAT_ID":"47872","PERIAPSIS":"532.581","EPHEMERIS_TYPE":"0","PERIOD":"95.330","REF_FRAME":"TEME","MEAN_MOTION_DOT":"-0.00250110","MEAN_MOTION":"15.10546690","LAUNCH_DATE":"2021-03-14","TIME_SYSTEM":"UTC","RCS_SIZE":"LARGE"}];
